[{"OBJECT_NAME":"SKYSAT-C10","OBJECT_ID":"2017-068B","EPOCH":"2026-03-09T22:15:51.699744","MEAN_MOTION":15.3268588,"ECCENTRICITY":0.00010197,"INCLINATION":97.4337,"RA_OF_ASC_NODE":205.0399,"ARG_OF_PERICENTER":91.4285,"MEAN_ANOMALY":268.7074,"EPHEMERIS_TYPE":0,"CLASSIFICATION_TYPE":"U","NORAD_CAT_ID":42988,"ELEMENT_SET_NO":999,"REV_AT_EPOCH":46714,"BSTAR":0.00040981809,"MEAN_MOTION_DOT":0.00012865,"MEAN_MOTION_DDOT":0},{"OBJECT_NAME":"STARLINK-32712","OBJECT_ID":"2024-251B","EPOCH":"2026-03-09T22:20:57.193728","MEAN_MOTION":15.30216568,"ECCENTRICITY":0.00022377,"INCLINATION":53.1619,"RA_OF_ASC_NODE":334.3063,"ARG_OF_PERICENTER":150.1412,"MEAN_ANOMALY":209.9717,"EPHEMERIS_TYPE":0,"CLASSIFICATION_TYPE":"U","NORAD_CAT_ID":62433,"ELEMENT_SET_NO":999,"REV_AT_EPOCH":6798,"BSTAR":0.0013565253,"MEAN_MOTION_DOT":0.00040056,"MEAN_MOTION_DDOT":0}]
